ORBCOMM FM37            
1 33064U 08031E   24138.92579986  .00004953  00000+0  73244-3 0  9994
2 33064  48.4405  58.0816 0005601 125.2938 349.0424 14.76486971855572
ORBCOMM FM40            
1 33065U 08031F   24138.91784845  .00006155  00000+0  87540-3 0  9996
2 33065  48.4429  47.4217 0006962 134.3866 352.5701 14.77816216855610
VESSELSAT 1             
1 37840U 11058C   24139.20887382  .00000585  00000+0  17500-3 0  9997
2 37840  19.9636 323.5419 0013686 162.1650 197.9236 14.11155803650670
ORBCOMM FM109           
1 40086U 14040A   24138.57210370  .00002602  00000+0  61495-3 0  9997
2 40086  47.0025  82.6222 0002610 297.0136  63.0482 14.56631122523472
ORBCOMM FM107           
1 40087U 14040B   24138.88066837  .00002814  00000+0  66170-3 0  9999
2 40087  47.0046  82.1350 0002033 273.5459  86.5193 14.56644126523476
ORBCOMM FM106           
1 40088U 14040C   24139.16063942  .00003968  00000+0  73053-3 0  9995
2 40088  47.0599 293.3849 0017162  31.3161 328.8748 14.67071507525635
ORBCOMM FM111           
1 40089U 14040D   24138.84412602  .00004593  00000+0  59556-3 0  9998
2 40089  47.0027 195.0424 0031754 104.6903 255.7515 14.81856330531504
ORBCOMM FM104           
1 40090U 14040E   24138.65311630  .00002021  00000+0  50091-3 0  9997
2 40090  47.0037 112.1982 0017044 201.4732 158.5439 14.55152005522984
